OSCAR 7 (AO-7)          
1 07530U 74089B   26087.56027871 -.00000024  00000+0  14351-3 0  9995
2 07530 101.9957  99.9536 0011862 285.3194 195.1249 12.53696708350411
PHASE 3B (AO-10)        
1 14129U 83058B   26084.35916296 -.00000351  00000+0  00000+0 0  9990
2 14129  25.9114 233.6020 6040998  92.4738 333.4977  2.05874335293766
UOSAT 2 (UO-11)         
1 14781U 84021B   26087.47038244  .00001682  00000+0  17761-3 0  9992
2 14781  97.7979  53.9964 0009186  90.6259 269.6012 14.90569775245103
LUSAT (LO-19)           
1 20442U 90005G   26087.59848880  .00000164  00000+0  75194-4 0  9999
2 20442  98.8920 107.1602 0012685  83.4954 276.7673 14.34095708890840
EYESAT A (AO-27)        
1 22825U 93061C   26087.58679121  .00000110  00000+0  59091-4 0  9999
2 22825  98.6945 155.0077 0007919 344.5745  15.5195 14.30919180695478
ITAMSAT (IO-26)         
1 22826U 93061D   26087.45034470  .00000129  00000+0  65762-4 0  9990
2 22826  98.6893 154.7806 0008147 327.0091  33.0583 14.31343795695763
RADIO ROSTO (RS15)      
1 23439U 94085A   26087.49760934 -.00000055  00000+0 -36168-3 0  9990
2 23439  64.8146  73.7114 0153382  18.5285 342.1141 11.27583748286802
JAS-2 (FO-29)           
1 24278U 96046B   26087.57334486 -.00000026  00000+0  12501-4 0  9992
2 24278  98.5349 307.4361 0349075 305.7298  51.1832 13.53269913462261
TECHSAT 1B (GO-32)      
1 25397U 98043D   26087.49521919  .00000090  00000+0  59018-4 0  9998
2 25397  99.0047  78.2313 0002336  88.9707 271.1738 14.24411010439849
ISS (ZARYA)             
1 25544U 98067A   26087.48736240  .00011758  00000+0  22419-3 0  9999
2 25544  51.6344 339.4313 0006231 242.6596 117.3758 15.48607800559243
PCSAT (NO-44)           
1 26931U 01043C   26087.41712930  .00000172  00000+0  95030-4 0  9999
2 26931  67.0488  93.1758 0006896 264.7045  95.3270 14.31921117278885
SAUDISAT 1C (SO-50)     
1 27607U 02058C   26087.23158542  .00001607  00000+0  20667-3 0  9997
2 27607  64.5539  19.4240 0075445 277.2270  82.0264 14.82854107252458
CUTE-1 (CO-55)          
1 27844U 03031E   26087.60183227  .00000364  00000+0  17671-3 0  9991
2 27844  98.6773  97.1664 0010630  63.2867 296.9399 14.24281335180203
CUBESAT XI-IV (CO-57)   
1 27848U 03031J   26087.55006450  .00000301  00000+0  15152-3 0  9994
2 27848  98.6807  96.8929 0010614  79.7322 280.5053 14.23574119179900
MOZHAETS 4 (RS22)       
1 27939U 03042A   26087.60702610  .00001029  00000+0  16731-3 0  9996
2 27939  98.3460 269.6967 0011660 158.6443 291.5826 14.73303625203688
CUBESAT XI-V            
1 28895U 05043F   26087.40458061  .00002005  00000+0  32432-3 0  9998
2 28895  98.2868 241.3872 0015358 101.9650 258.3279 14.72394420 89869
